LANDSAT 9               
1 49260U 21088A   24126.80184208  .00000695  00000+0  16435-3 0  9997
2 49260  98.1888 197.1345 0001319  88.7524 271.3826 14.57110644138513
